GORIZONT 1 [-]          
1 11158U 78118A   22200.47112950 -.00000065  00000+0  00000+0 0  9996
2 11158  11.0922 204.2052 3477055 282.8646  40.9247  1.00301320108617
GORIZONT 2 [-]          
1 11440U 79062A   22201.88179177  .00000048  00000+0  00000+0 0  9999
2 11440   9.2099 301.4608 0002260 223.3161 151.1296  1.00267732123695
GORIZONT 3 [-]          
1 11648U 79105A   22201.87969896  .00000107  00000+0  00000+0 0  9997
2 11648   9.3686 302.8880 0013973 208.3293 153.5826  1.00322484108141
GORIZONT 4 [-]          
1 11841U 80049A   22202.18591095 -.00000190  00000+0  00000+0 0  9991
2 11841  10.5162 308.6244 0001297 152.2675  32.9072  0.98630471219470
GORIZONT 5 [-]          
1 13092U 82020A   22202.40506123 -.00000130  00000+0  00000+0 0  9999
2 13092  11.5036 313.8941 0034272 209.9070 115.2551  0.98533329107524
GORIZONT 6 [-]          
1 13624U 82103A   22201.62183716  .00000085  00000+0  00000+0 0  9992
2 13624  10.4242 313.9318 0003193 165.6686 230.8641  1.00266163106638
GORIZONT 7 [-]          
1 14160U 83066A   22202.12006307 -.00000206  00000+0  00000+0 0  9999
2 14160  12.0754 323.2196 0008138 316.5420 238.0868  0.98350068140751
GORIZONT 8 [-]          
1 14532U 83118A   22200.88100065 -.00000013  00000+0  00000+0 0  9993
2 14532  12.2489 325.0736 0031013 147.9442 220.7292  0.98268312106479
GORIZONT 9 [-]          
1 14940U 84041A   22200.80882728 -.00000247  00000+0  00000+0 0  9996
2 14940  11.4422 323.1264 0004651 197.2487 159.6106  1.00239014107612
GORIZONT 10 [-]         
1 15144U 84078A   22202.27695098  .00000100  00000+0  00000+0 0  9995
2 15144  11.5323 324.1382 0001772 125.1861 165.6869  1.00192061140293
GORIZONT 11 [-]         
1 15484U 85007A   22200.87899503 -.00000075  00000+0  00000+0 0  9998
2 15484  11.7135 326.1203 0005221 144.6822 211.7497  1.00394130138303
GORIZONT 12 [-]         
1 16769U 86044A   22201.88545418 -.00000124  00000+0  00000+0 0  9997
2 16769  12.3210 331.4633 0001880 159.4975 204.6244  1.00197054132960
GORIZONT 13 [-]         
1 17083U 86090A   22201.88423337 -.00000070  00000+0  00000+0 0  9993
2 17083  14.1869 338.6019 0012213 345.7485   4.5626  0.96725425104867
GORIZONT 14 [-]         
1 17969U 87040A   22201.51852087 -.00000096  00000+0  00000+0 0  9998
2 17969  13.1481 330.0391 0032486 170.7038  21.6658  0.97658788105912
GORIZONT 15 [-]         
1 19017U 88028A   22201.75517684 -.00000198  00000+0  00000+0 0  9991
2 19017  14.4679 341.4498 0038587 153.6713 220.5207  0.97830062105549
GORIZONT 16 [-]         
1 19397U 88071A   22200.26299633 -.00000293  00000+0  00000+0 0  9992
2 19397  13.3231 340.1457 0015393  66.9907 307.9630  0.99983898123957
GORIZONT 17 [-]         
1 19765U 89004A   22201.30618633 -.00000250  00000+0  00000+0 0  9992
2 19765  13.8620 343.4709 0024869 129.6945 250.0193  0.99067563121431
GORIZONT 18 [-]         
1 20107U 89052A   22201.85606767 -.00000204  00000+0  00000+0 0  9991
2 20107  13.9020 344.7291 0032643 318.8318 234.7059  0.99400003120229
GORIZONT 19 [-]         
1 20263U 89081A   22202.02222431  .00000098  00000+0  00000+0 0  9998
2 20263  13.6326 343.9235 0003399 174.7207 192.8661  1.00323672120186
GORIZONT 20 [-]         
1 20659U 90054A   22202.38382973 -.00000303  00000+0  00000+0 0  9996
2 20659  14.0632 346.7505 0007150 156.9523  29.7107  1.00286964117375
GORIZONT 21 [-]         
1 20923U 90094A   22201.47063237 -.00000136  00000+0  00000+0 0  9996
2 20923  14.0753 347.5287 0004672 183.4833 191.1117  1.00388759116126
GORIZONT 22 [-]         
1 20953U 90102A   22201.75404323 -.00000309  00000+0  00000+0 0  9997
2 20953  14.0331 347.8932 0003218  42.2632 318.7522  1.00292989116064
GORIZONT 23 [-]         
1 21533U 91046A   22201.62363250 -.00000291  00000+0  00000+0 0  9999
2 21533  14.7847 352.0280 0002261 346.2107 340.9991  0.98911620 32568
GORIZONT 24 [-]         
1 21759U 91074A   22202.35902461 -.00000125  00000+0  00000+0 0  9990
2 21759  14.9348 353.9176 0016763 219.5947 149.6054  0.98443295110992
GORIZONT 25 [-]         
1 21922U 92017A   22201.45379345 -.00000014  00000+0  00000+0 0  9996
2 21922  14.4786 353.2662 0030445  81.8479  98.7514  0.99841705110681
GORIZONT 26 [-]         
1 22041U 92043A   22202.01785446 -.00000126  00000+0  00000+0 0  9998
2 22041  14.6442 355.2549 0029227 230.9696  89.7383  0.99245754109320
GORIZONT 27 [-]         
1 22245U 92082A   22202.38382973 -.00000274  00000+0  00000+0 0  9999
2 22245  14.5615 354.8586 0012136  18.3134 159.5567  1.00146321112854
GORIZONT 28 [-]         
1 22880U 93069A   22202.28974992 -.00000289  00000+0  00000+0 0  9993
2 22880  14.6932 358.7114 0035907 129.4189 222.0105  0.99653905104928
GORIZONT 29 [-]         
1 22907U 93072A   22195.63125542  .00000063  00000+0  00000+0 0  9995
2 22907  14.6085 358.2367 0009500 356.9251 183.6660  1.00147427104815
GORIZONT 30 [-]         
1 23108U 94030A   22202.24478125 -.00000288  00000+0  00000+0 0  9998
2 23108  14.6172 359.0911 0002980 125.5472  44.6318  1.00294770103189
GORIZONT 31 [-]         
1 23775U 96005A   22201.85737567 -.00000286  00000+0  00000+0 0  9994
2 23775  14.5129   5.2868 0017960 196.0573 343.2142  0.99890141 96781
GORIZONT 32 [-]         
1 23880U 96034A   22202.05919726  .00000037  00000+0  00000+0 0  9998
2 23880  14.4599   5.8064 0008544   2.8623 181.5167  1.00151089 95749
GORIZONT 33 [-]         
1 26372U 00029A   22201.86199729 -.00000282  00000+0  00000+0 0  9990
2 26372  13.1472  16.9552 0005007  89.6160 103.0439  1.00328243 81103
